<?xml version="1.0" encoding="UTF-8"?>
<ndm xmlns:xsi="http://www.w3.org/2001/XMLSchema-instance" xsi:noNamespaceSchemaLocation="https://sanaregistry.org/r/ndmxml_unqualified/ndmxml-2.0.0-master-2.0.xsd">
<omm id="CCSDS_OMM_VERS" version="2.0">
<header><CREATION_DATE/><ORIGINATOR/></header><body><segment><metadata><OBJECT_NAME>KUIPER-00029</OBJECT_NAME><OBJECT_ID>2025-088U</OBJECT_ID><CENTER_NAME>EARTH</CENTER_NAME><REF_FRAME>TEME</REF_FRAME><TIME_SYSTEM>UTC</TIME_SYSTEM><MEAN_ELEMENT_THEORY>SGP4</MEAN_ELEMENT_THEORY></metadata><data><meanElements><EPOCH>2026-01-22T04:53:04.989408</EPOCH><MEAN_MOTION>14.80023236</MEAN_MOTION><ECCENTRICITY>.000077</ECCENTRICITY><INCLINATION>51.9017</INCLINATION><RA_OF_ASC_NODE>297.1823</RA_OF_ASC_NODE><ARG_OF_PERICENTER>47.1718</ARG_OF_PERICENTER><MEAN_ANOMALY>312.9309</MEAN_ANOMALY></meanElements><tleParameters><EPHEMERIS_TYPE>0</EPHEMERIS_TYPE><CLASSIFICATION_TYPE>U</CLASSIFICATION_TYPE><NORAD_CAT_ID>63742</NORAD_CAT_ID><ELEMENT_SET_NO>999</ELEMENT_SET_NO><REV_AT_EPOCH>4072</REV_AT_EPOCH><BSTAR>.10535E-2</BSTAR><MEAN_MOTION_DOT>.7836E-4</MEAN_MOTION_DOT><MEAN_MOTION_DDOT>0</MEAN_MOTION_DDOT></tleParameters></data></segment></body></omm>
<omm id="CCSDS_OMM_VERS" version="2.0">
<header><CREATION_DATE/><ORIGINATOR/></header><body><segment><metadata><OBJECT_NAME>KUIPER-00030</OBJECT_NAME><OBJECT_ID>2025-088V</OBJECT_ID><CENTER_NAME>EARTH</CENTER_NAME><REF_FRAME>TEME</REF_FRAME><TIME_SYSTEM>UTC</TIME_SYSTEM><MEAN_ELEMENT_THEORY>SGP4</MEAN_ELEMENT_THEORY></metadata><data><meanElements><EPOCH>2026-01-22T04:24:21.661056</EPOCH><MEAN_MOTION>14.80051673</MEAN_MOTION><ECCENTRICITY>.00121978</ECCENTRICITY><INCLINATION>51.9017</INCLINATION><RA_OF_ASC_NODE>316.1921</RA_OF_ASC_NODE><ARG_OF_PERICENTER>278.9531</ARG_OF_PERICENTER><MEAN_ANOMALY>81.0050</MEAN_ANOMALY></meanElements><tleParameters><EPHEMERIS_TYPE>0</EPHEMERIS_TYPE><CLASSIFICATION_TYPE>U</CLASSIFICATION_TYPE><NORAD_CAT_ID>63743</NORAD_CAT_ID><ELEMENT_SET_NO>999</ELEMENT_SET_NO><REV_AT_EPOCH>4074</REV_AT_EPOCH><BSTAR>.12198063E-2</BSTAR><MEAN_MOTION_DOT>.9125E-4</MEAN_MOTION_DOT><MEAN_MOTION_DDOT>0</MEAN_MOTION_DDOT></tleParameters></data></segment></body></omm>
<omm id="CCSDS_OMM_VERS" version="2.0">
<header><CREATION_DATE/><ORIGINATOR/></header><body><segment><metadata><OBJECT_NAME>KUIPER-00031</OBJECT_NAME><OBJECT_ID>2025-088W</OBJECT_ID><CENTER_NAME>EARTH</CENTER_NAME><REF_FRAME>TEME</REF_FRAME><TIME_SYSTEM>UTC</TIME_SYSTEM><MEAN_ELEMENT_THEORY>SGP4</MEAN_ELEMENT_THEORY></metadata><data><meanElements><EPOCH>2026-01-22T11:12:01.971936</EPOCH><MEAN_MOTION>14.80166470</MEAN_MOTION><ECCENTRICITY>.0003007</ECCENTRICITY><INCLINATION>51.9006</INCLINATION><RA_OF_ASC_NODE>300.9930</RA_OF_ASC_NODE><ARG_OF_PERICENTER>356.3319</ARG_OF_PERICENTER><MEAN_ANOMALY>3.7621</MEAN_ANOMALY></meanElements><tleParameters><EPHEMERIS_TYPE>0</EPHEMERIS_TYPE><CLASSIFICATION_TYPE>U</CLASSIFICATION_TYPE><NORAD_CAT_ID>63744</NORAD_CAT_ID><ELEMENT_SET_NO>999</ELEMENT_SET_NO><REV_AT_EPOCH>4069</REV_AT_EPOCH><BSTAR>.87869E-3</BSTAR><MEAN_MOTION_DOT>.6521E-4</MEAN_MOTION_DOT><MEAN_MOTION_DDOT>0</MEAN_MOTION_DDOT></tleParameters></data></segment></body></omm>
<omm id="CCSDS_OMM_VERS" version="2.0">
<header><CREATION_DATE/><ORIGINATOR/></header><body><segment><metadata><OBJECT_NAME>KUIPER-00032</OBJECT_NAME><OBJECT_ID>2025-088X</OBJECT_ID><CENTER_NAME>EARTH</CENTER_NAME><REF_FRAME>TEME</REF_FRAME><TIME_SYSTEM>UTC</TIME_SYSTEM><MEAN_ELEMENT_THEORY>SGP4</MEAN_ELEMENT_THEORY></metadata><data><meanElements><EPOCH>2026-01-22T08:18:54.302112</EPOCH><MEAN_MOTION>15.35034455</MEAN_MOTION><ECCENTRICITY>.0002713</ECCENTRICITY><INCLINATION>51.8698</INCLINATION><RA_OF_ASC_NODE>247.8990</RA_OF_ASC_NODE><ARG_OF_PERICENTER>323.8069</ARG_OF_PERICENTER><MEAN_ANOMALY>36.2733</MEAN_ANOMALY></meanElements><tleParameters><EPHEMERIS_TYPE>0</EPHEMERIS_TYPE><CLASSIFICATION_TYPE>U</CLASSIFICATION_TYPE><NORAD_CAT_ID>63745</NORAD_CAT_ID><ELEMENT_SET_NO>999</ELEMENT_SET_NO><REV_AT_EPOCH>4242</REV_AT_EPOCH><BSTAR>.47582E-3</BSTAR><MEAN_MOTION_DOT>.16075E-3</MEAN_MOTION_DOT><MEAN_MOTION_DDOT>0</MEAN_MOTION_DDOT></tleParameters></data></segment></body></omm>
<omm id="CCSDS_OMM_VERS" version="2.0">
<header><CREATION_DATE/><ORIGINATOR/></header><body><segment><metadata><OBJECT_NAME>KUIPER-00033</OBJECT_NAME><OBJECT_ID>2025-088Y</OBJECT_ID><CENTER_NAME>EARTH</CENTER_NAME><REF_FRAME>TEME</REF_FRAME><TIME_SYSTEM>UTC</TIME_SYSTEM><MEAN_ELEMENT_THEORY>SGP4</MEAN_ELEMENT_THEORY></metadata><data><meanElements><EPOCH>2026-01-22T05:36:07.348896</EPOCH><MEAN_MOTION>14.80057340</MEAN_MOTION><ECCENTRICITY>.000129</ECCENTRICITY><INCLINATION>51.9025</INCLINATION><RA_OF_ASC_NODE>332.0305</RA_OF_ASC_NODE><ARG_OF_PERICENTER>90.4614</ARG_OF_PERICENTER><MEAN_ANOMALY>269.6496</MEAN_ANOMALY></meanElements><tleParameters><EPHEMERIS_TYPE>0</EPHEMERIS_TYPE><CLASSIFICATION_TYPE>U</CLASSIFICATION_TYPE><NORAD_CAT_ID>63746</NORAD_CAT_ID><ELEMENT_SET_NO>999</ELEMENT_SET_NO><REV_AT_EPOCH>4072</REV_AT_EPOCH><BSTAR>.10764E-2</BSTAR><MEAN_MOTION_DOT>.8018E-4</MEAN_MOTION_DOT><MEAN_MOTION_DDOT>0</MEAN_MOTION_DDOT></tleParameters></data></segment></body></omm>
<omm id="CCSDS_OMM_VERS" version="2.0">
<header><CREATION_DATE/><ORIGINATOR/></header><body><segment><metadata><OBJECT_NAME>KUIPER-00034</OBJECT_NAME><OBJECT_ID>2025-088Z</OBJECT_ID><CENTER_NAME>EARTH</CENTER_NAME><REF_FRAME>TEME</REF_FRAME><TIME_SYSTEM>UTC</TIME_SYSTEM><MEAN_ELEMENT_THEORY>SGP4</MEAN_ELEMENT_THEORY></metadata><data><meanElements><EPOCH>2026-01-22T11:25:52.452192</EPOCH><MEAN_MOTION>14.79964226</MEAN_MOTION><ECCENTRICITY>.0002831</ECCENTRICITY><INCLINATION>51.9015</INCLINATION><RA_OF_ASC_NODE>293.4752</RA_OF_ASC_NODE><ARG_OF_PERICENTER>77.4305</ARG_OF_PERICENTER><MEAN_ANOMALY>282.6974</MEAN_ANOMALY></meanElements><tleParameters><EPHEMERIS_TYPE>0</EPHEMERIS_TYPE><CLASSIFICATION_TYPE>U</CLASSIFICATION_TYPE><NORAD_CAT_ID>63747</NORAD_CAT_ID><ELEMENT_SET_NO>999</ELEMENT_SET_NO><REV_AT_EPOCH>4096</REV_AT_EPOCH><BSTAR>.30664E-3</BSTAR><MEAN_MOTION_DOT>.2118E-4</MEAN_MOTION_DOT><MEAN_MOTION_DDOT>0</MEAN_MOTION_DDOT></tleParameters></data></segment></body></omm>
<omm id="CCSDS_OMM_VERS" version="2.0">
<header><CREATION_DATE/><ORIGINATOR/></header><body><segment><metadata><OBJECT_NAME>KUIPER-00035</OBJECT_NAME><OBJECT_ID>2025-088AA</OBJECT_ID><CENTER_NAME>EARTH</CENTER_NAME><REF_FRAME>TEME</REF_FRAME><TIME_SYSTEM>UTC</TIME_SYSTEM><MEAN_ELEMENT_THEORY>SGP4</MEAN_ELEMENT_THEORY></metadata><data><meanElements><EPOCH>2026-01-22T01:04:32.381472</EPOCH><MEAN_MOTION>14.79970560</MEAN_MOTION><ECCENTRICITY>.00047761</ECCENTRICITY><INCLINATION>51.9025</INCLINATION><RA_OF_ASC_NODE>320.3860</RA_OF_ASC_NODE><ARG_OF_PERICENTER>282.1644</ARG_OF_PERICENTER><MEAN_ANOMALY>77.8784</MEAN_ANOMALY></meanElements><tleParameters><EPHEMERIS_TYPE>0</EPHEMERIS_TYPE><CLASSIFICATION_TYPE>U</CLASSIFICATION_TYPE><NORAD_CAT_ID>63748</NORAD_CAT_ID><ELEMENT_SET_NO>999</ELEMENT_SET_NO><REV_AT_EPOCH>4060</REV_AT_EPOCH><BSTAR>.13156404E-2</BSTAR><MEAN_MOTION_DOT>.9833E-4</MEAN_MOTION_DOT><MEAN_MOTION_DDOT>0</MEAN_MOTION_DDOT></tleParameters></data></segment></body></omm>
<omm id="CCSDS_OMM_VERS" version="2.0">
<header><CREATION_DATE/><ORIGINATOR/></header><body><segment><metadata><OBJECT_NAME>KUIPER-00037</OBJECT_NAME><OBJECT_ID>2025-088AB</OBJECT_ID><CENTER_NAME>EARTH</CENTER_NAME><REF_FRAME>TEME</REF_FRAME><TIME_SYSTEM>UTC</TIME_SYSTEM><MEAN_ELEMENT_THEORY>SGP4</MEAN_ELEMENT_THEORY></metadata><data><meanElements><EPOCH>2026-01-22T04:20:34.195776</EPOCH><MEAN_MOTION>14.79956550</MEAN_MOTION><ECCENTRICITY>.00008165</ECCENTRICITY><INCLINATION>51.9015</INCLINATION><RA_OF_ASC_NODE>318.7221</RA_OF_ASC_NODE><ARG_OF_PERICENTER>94.1933</ARG_OF_PERICENTER><MEAN_ANOMALY>265.9122</MEAN_ANOMALY></meanElements><tleParameters><EPHEMERIS_TYPE>0</EPHEMERIS_TYPE><CLASSIFICATION_TYPE>U</CLASSIFICATION_TYPE><NORAD_CAT_ID>63749</NORAD_CAT_ID><ELEMENT_SET_NO>999</ELEMENT_SET_NO><REV_AT_EPOCH>4142</REV_AT_EPOCH><BSTAR>.12278679E-2</BSTAR><MEAN_MOTION_DOT>.9157E-4</MEAN_MOTION_DOT><MEAN_MOTION_DDOT>0</MEAN_MOTION_DDOT></tleParameters></data></segment></body></omm>
<omm id="CCSDS_OMM_VERS" version="2.0">
<header><CREATION_DATE/><ORIGINATOR/></header><body><segment><metadata><OBJECT_NAME>KUIPER-00038</OBJECT_NAME><OBJECT_ID>2025-088AC</OBJECT_ID><CENTER_NAME>EARTH</CENTER_NAME><REF_FRAME>TEME</REF_FRAME><TIME_SYSTEM>UTC</TIME_SYSTEM><MEAN_ELEMENT_THEORY>SGP4</MEAN_ELEMENT_THEORY></metadata><data><meanElements><EPOCH>2026-01-22T11:12:48.688416</EPOCH><MEAN_MOTION>14.79998324</MEAN_MOTION><ECCENTRICITY>.0004489</ECCENTRICITY><INCLINATION>51.9031</INCLINATION><RA_OF_ASC_NODE>302.4807</RA_OF_ASC_NODE><ARG_OF_PERICENTER>303.1661</ARG_OF_PERICENTER><MEAN_ANOMALY>56.8870</MEAN_ANOMALY></meanElements><tleParameters><EPHEMERIS_TYPE>0</EPHEMERIS_TYPE><CLASSIFICATION_TYPE>U</CLASSIFICATION_TYPE><NORAD_CAT_ID>63750</NORAD_CAT_ID><ELEMENT_SET_NO>999</ELEMENT_SET_NO><REV_AT_EPOCH>4067</REV_AT_EPOCH><BSTAR>.10441E-2</BSTAR><MEAN_MOTION_DOT>.776E-4</MEAN_MOTION_DOT><MEAN_MOTION_DDOT>0</MEAN_MOTION_DDOT></tleParameters></data></segment></body></omm>

</ndm>
